COSMOS 2426 (717)       
1 29671U 06062B   19239.11893767  .00000072  00000-0  10000-3 0  9998
2 29671  65.0865 277.8932 0021199 179.3727  88.1547  2.12961908 98607
COSMOS 2433 (720)       
1 32275U 07052A   19238.40567138 -.00000005  00000-0  10000-3 0  9990
2 32275  65.8804  38.7928 0001729 197.5234 232.3506  2.13104416 92104
COSMOS 2432 (719)       
1 32276U 07052B   19239.10701373 -.00000008  00000-0  10000-3 0  9993
2 32276  65.8923  38.8541 0008839 341.2768 217.5921  2.13103719 92110
COSMOS 2434 (721)       
1 32393U 07065A   19239.31824243  .00000073  00000-0  00000+0 0  9998
2 32393  64.6913 276.5497 0002855 151.5673 145.8332  2.13103051 90820
COSMOS 2436 (723)       
1 32395U 07065C   19238.62146716  .00000072  00000-0  10000-3 0  9999
2 32395  64.6992 276.6314 0014618 351.8016 183.6825  2.13104406 90747
COSMOS 2456 (730)       
1 36111U 09070A   19238.30255709 -.00000004  00000-0  00000-0 0  9997
2 36111  64.2037 156.2279 0005092 312.4685  98.9058  2.13103077 75479
COSMOS 2457 (733)       
1 36112U 09070B   19239.39033939 -.00000004  00000-0  00000+0 0  9996
2 36112  64.1863 156.0905 0005052 177.7501 112.8510  2.13101608 75494
COSMOS 2459 (731)       
1 36400U 10007A   19238.57986207 -.00000007  00000-0  10000-3 0  9990
2 36400  65.7840  37.7961 0024685 355.3819  63.5649  2.13102151 73837
COSMOS 2461 (735)       
1 36401U 10007B   19238.64571753 -.00000008  00000-0  10000-3 0  9996
2 36401  65.7779  37.7642 0008657  77.4961 302.5084  2.13102108 73837
COSMOS 2460 (732)       
1 36402U 10007C   19238.58099201 -.00000008  00000-0  10000-3 0  9993
2 36402  65.7674  37.7303 0002447 112.2161 257.8400  2.13101491 73835
COSMOS 2464 (736)       
1 37139U 10041C   19238.98418484  .00000073  00000-0  00000+0 0  9997
2 37139  64.2916 276.1493 0023343   7.9072 258.9791  2.13100697 69909
COSMOS 2474 (742)       
1 37829U 11055A   19238.58482419 -.00000004  00000-0  00000+0 0  9999
2 37829  64.5254 157.1175 0009575 248.9655 235.0510  2.13101891 61479
COSMOS 2476 (744)       
1 37867U 11064A   19238.58894144 -.00000004  00000-0  00000+0 0  9993
2 37867  64.5055 157.1683 0019814 241.4167 291.9300  2.13102016 60823
COSMOS 2477 (745)       
1 37868U 11064B   19239.12293617 -.00000004  00000-0  00000+0 0  9993
2 37868  64.5134 157.2037 0017486 242.5925 159.0614  2.13101899 60799
COSMOS 2475 (743)       
1 37869U 11064C   19239.09994892 -.00000004  00000-0  00000+0 0  9993
2 37869  64.5189 157.2032 0021333 264.6625  76.5164  2.13102355 60794
COSMOS 2485 (747)       
1 39155U 13019A   19239.39048314 -.00000003  00000-0  00000+0 0  9996
2 39155  64.6750 157.3458 0020185 237.1848 235.7808  2.13102095 49318
COSMOS 2492 (754)       
1 39620U 14012A   19239.28828520 -.00000011  00000-0  10000-3 0  9994
2 39620  65.6575  37.5300 0011931 333.4270  96.2206  2.13103335 42261
COSMOS 2500 (755)       
1 40001U 14032A   19239.18136848 -.00000011  00000-0  00000+0 0  9990
2 40001  65.6014  37.4711 0006413 184.9059  23.9935  2.13102642 40479
COSMOS 2501 (702K)      
1 40315U 14075A   19239.24776660  .00000070  00000-0  00000+0 0  9998
2 40315  64.0129 277.1950 0017802 209.7666 207.4417  2.13098705 36887
COSMOS 2514 (751)       
1 41330U 16008A   19239.58622381 -.00000014  00000-0  00000+0 0  9990
2 41330  65.4041  37.4035 0009610 201.6853 139.6360  2.13103334 27643
COSMOS 2516 (753)       
1 41554U 16032A   19239.38787167  .00000071  00000-0  00000+0 0  9999
2 41554  64.2345 277.1774 0014847 219.8056 219.9108  2.13101769 25259
COSMOS 2522 (752)       
1 42939U 17055A   19238.67378161  .00000071  00000-0  00000-0 0  9995
2 42939  64.4667 277.2944 0009724 242.2204 236.1695  2.13101957 14999
COSMOS 2527 (756)       
1 43508U 18053A   19239.21635787 -.00000004  00000-0  00000+0 0  9994
2 43508  64.8386 157.1373 0008006 238.3556 327.6370  2.13102645  9292
COSMOS 2529 (757)       
1 43687U 18086A   19238.92080169  .00000072  00000-0  00000-0 0  9998
2 43687  64.6786 277.3299 0011783 263.7990 359.7949  2.13102050  6301
COSMOS 2534 (758)       
1 44299U 19030A   19238.87225256  .00000072  00000-0  00000+0 0  9999
2 44299  64.7486 277.1188 0014423 281.6829  79.8706  2.13102010  1951
